CCSDS_OEM_VERS = 2.0  
CREATION_DATE  = 2026-05-08T15:36:50
ORIGINATOR     = ESOC/OPS-GFA                            
 
 



META_START
OBJECT_NAME          = LISA                                    
OBJECT_ID            = -1000                                   
CENTER_NAME          = SUN                     
REF_FRAME            = EME2000 
TIME_SYSTEM          = TCB
START_TIME           = 2036-12-23T00:00:30.346418            
STOP_TIME            = 2047-09-07T23:08:15.093369            
INTERPOLATION        = HERMITE                                 
INTERPOLATION_DEGREE = 7                                       
META_STOP

2039-09-16T15:14:52.323018     1.36451646996460736e+08   -5.63824801379440725e+07   -2.43790609374475256e+07    1.23535003418862104e+01    2.47604517126402150e+01    1.10030457740254821e+01   -5.40424810000443704e-06    2.23327507257485634e-06    9.65637272436239557e-07
2039-09-17T11:28:50.585679     1.37337088277334511e+08   -5.45731113195234165e+07   -2.35750849437945783e+07    1.19586212839094035e+01    2.49204959188189932e+01    1.10722154808113249e+01   -5.43818698581516036e-06    2.16116224643195483e-06    9.33600179875253077e-07
2039-09-18T07:42:48.848340     1.38193678241438240e+08   -5.27522768287894428e+07   -2.27661558957692981e+07    1.15613122311524883e+01    2.50752720275307368e+01    1.11390449671467326e+01   -5.47097012279675778e-06    2.08862573263050376e-06    9.01380422698626724e-07
2039-09-19T03:56:47.111001     1.39021243003403932e+08   -5.09203614982255921e+07   -2.19524447306868657e+07    1.11616575833193448e+01    2.52247497443622564e+01    1.12035211794299574e+01   -5.50259159838644763e-06    2.01568109067468021e-06    8.68984907809529031e-07
2039-09-20T00:10:45.373662     1.39819614829095781e+08   -4.90777523252306357e+07   -2.11341233182134926e+07    1.07597421609586039e+01    2.53688999106050943e+01    1.12656315681573442e+01   -5.53304576921049755e-06    1.94234394463017915e-06    8.36420569561644169e-07
2039-09-20T20:24:43.636324     1.40588632149135023e+08   -4.72248383882166520e+07   -2.03113644231975302e+07    1.03556511859965354e+01    2.55076945077801192e+01    1.13253640898446246e+01   -5.56232725631984035e-06    1.86862997794850537e-06    8.03694367488911048e-07
2039-09-21T16:38:41.898985     1.41328139579746276e+08   -4.53620107627764866e+07   -1.94843416685013250e+07    9.94947026281777092e+00    2.56411066617217003e+01    1.13827072087556331e+01   -5.59043093492065585e-06    1.79455492655394590e-06    7.70813283289796761e-07
2039-09-22T12:52:40.161646     1.42037987956925303e+08   -4.34896624382218346e+07   -1.86532294979421794e+07    9.54128536029348595e+00    2.57691106460954380e+01    1.14376498983843309e+01   -5.61735191861990367e-06    1.72013457019941241e-06    7.37784317068458708e-07
2039-09-23T09:06:38.424307     1.42718034389930308e+08   -4.16081882347929552e+07   -1.78182031394508965e+07    9.13118279515674480e+00    2.58916818852232744e+01    1.14901816426360615e+01   -5.64308553818548843e-06    1.64538472208997926e-06    7.04614482832555897e-07
2039-09-24T05:20:36.686968     1.43368142340097427e+08   -3.97179847218403220e+07   -1.69794385685562938e+07    8.71924921712446555e+00    2.60087969560900589e+01    1.15402924366539050e+01   -5.66762731484933385e-06    1.57032121679433152e-06    6.71310803256457166e-07
2039-09-25T01:34:34.949630     1.43988181730982184e+08   -3.78194501372801661e+07   -1.61371124723042417e+07    8.30557159616583185e+00    2.61204335894054118e+01    1.15879727872360601e+01   -5.69097292802042309e-06    1.49495989637139947e-06    6.37880303678080876e-07
2039-09-25T21:51:02.901340     1.44579209782537669e+08   -3.59090584635182172e+07   -1.52896608441524357e+07    7.88938199308352850e+00    2.62267831220884879e+01    1.16333041726404094e+01   -5.71316321991735900e-06    1.41916111928620374e-06    6.04261048780355707e-07
2039-09-26T18:07:30.853051     1.45139802990216553e+08   -3.39911066963689476e+07   -1.44389902225347310e+07    7.47161684923401292e+00    2.63275904191370955e+01    1.16761775868391542e+01   -5.73414499301819165e-06    1.34309544072032114e-06    5.70528698981458349e-07
2039-09-27T14:23:58.804761     1.45669849613056958e+08   -3.20660000399280563e+07   -1.35852803005441949e+07    7.05236449292461565e+00    2.64228365878304743e+01    1.17165850358031456e+01   -5.75391496002705438e-06    1.26677897241260991e-06    5.36690394647264750e-07
2039-09-28T10:40:26.756471     1.46169244300181061e+08   -3.01341450462318882e+07   -1.27287113412622698e+07    6.63171348579785658e+00    2.65125039120773103e+01    1.17545190469315131e+01   -5.77247001976088206e-06    1.19022784437836310e-06    5.02753283458886157e-07
2039-09-29T06:56:54.708182     1.46637888164123446e+08   -2.81959495198608972e+07   -1.18694641352600418e+07    6.20975260817093222e+00    2.65965758537379244e+01    1.17899726695759792e+01   -5.78980728558995092e-06    1.11345820445463076e-06    4.68724520094943674e-07
2039-09-30T03:13:22.659893     1.47075688825875431e+08   -2.62518224268945828e+07   -1.10077199601404462e+07    5.78657084251202214e+00    2.66750370538911277e+01    1.18229394755330279e+01   -5.80592410815651344e-06    1.03648621727497254e-06    4.34611265684895788e-07
2039-09-30T23:29:50.611604     1.47482560437559128e+08   -2.43021738072327748e+07   -1.01436605416614376e+07    5.36225735546698168e+00    2.67478733340053729e+01    1.18534135594878460e+01   -5.82081809237965818e-06    9.59328062673967188e-07    4.00420687033586007e-07
2039-10-01T19:46:18.563314     1.47858423688637018e+08   -2.23474146893153191e+07   -9.27746801598769613e+06    4.93690147885377684e+00    2.68150716969726233e+01    1.18813895393932434e+01   -5.83448710873358901e-06    8.81999933518807103e-07    3.66159955615843391e-07
2039-10-02T16:02:46.515025     1.48203205801562637e+08   -2.03879570062723421e+07   -8.40932489261850528e+06    4.51059269004203056e+00    2.68766203279631597e+01    1.19068625567669049e+01   -5.84692929882165844e-06    8.04518032972599085e-07    3.31836246343105068e-07
2039-10-03T12:19:14.466735     1.48516840522778541e+08   -1.84242135125371963e+07   -7.53941401753945276e+06    4.08342059213503372e+00    2.69325085950596517e+01    1.19298282768901629e+01   -5.85814307520983076e-06    7.26898571181990516e-07    2.97456736098946561e-07
2039-10-04T08:35:42.418445     1.48799268114967316e+08   -1.64565976999542750e+07   -6.66791853614547662e+06    3.65547489437162554e+00    2.69827270496288492e+01    1.19502828888916213e+01   -5.86812711557052665e-06    6.49157761398667229e-07    2.63028602047494042e-07
2039-10-05T04:52:10.370156     1.49050435356461227e+08   -1.44855237124136724e+07   -5.79502185548303276e+06    3.22684539316519992e+00    2.70272674263891552e+01    1.19682231056988684e+01   -5.87688035109392832e-06    5.71311815528871085e-07    2.28559019712410128e-07
2039-10-06T01:08:38.321867     1.49270295553716600e+08   -1.25114062580450475e+07   -4.92090760535894334e+06    2.79762195419735082e+00    2.70661226431324096e+01    1.19836461638415681e+01   -5.88440194914881026e-06    4.93376939101655920e-07    1.94055160822264643e-07
2039-10-06T21:25:06.273577     1.49458808572758645e+08   -1.05346605180026442e+07   -4.04575959786336496e+06    2.36789449598339985e+00    2.70992868000581666e+01    1.19965498230891860e+01   -5.89069129030989182e-06    4.15369325687069326e-07    1.59524190935776133e-07
2039-10-07T17:41:34.225288     1.49615940895502716e+08   -8.55570205087361857e+06   -3.16976178485499136e+06    1.93775297532712631e+00    2.71267551786788488e+01    1.20069323659066249e+01   -5.89574793958858169e-06    3.37305150724784894e-07    1.24973266829972621e-07
2039-10-08T13:58:02.176999     1.49741665706857473e+08   -6.57494669174185395e+06   -2.29309821295544133e+06    1.50728737508234634e+00    2.71485242402539946e+01    1.20147925967110467e+01   -5.89957161191427535e-06    2.59200564773391399e-07    9.04095336557186185e-08
2039-10-09T10:06:27.499456     1.49835442419069588e+08   -4.60592091959722899e+06   -1.42175426729706069e+06    1.07943622239147174e+00    2.71645041112821488e+01    1.20201028367836962e+01   -5.90214984582317888e-06    1.81588447497312371e-07    5.60687515082512019e-08
2039-10-10T06:14:52.821914     1.49898191950032085e+08   -2.63594053458642215e+06   -5.50115565423762426e+05    6.51442222785179492e-01    2.71748563024782541e+01    1.20229231967954071e+01   -5.90351203729058041e-06    1.03968251107499458e-07    2.17293922544916592e-08
2039-10-11T02:23:18.144371     1.49929907165711433e+08   -6.65413566513890401e+05    3.21637379419344012e+05    2.23393520024026460e-01    2.71795808005178294e+01    1.20232540330241893e+01   -5.90365892443093265e-06    2.63557635299953494e-08   -1.26015635858222459e-08
2039-10-11T22:31:43.466830     1.49930587264381200e+08    1.30525197196555510e+06    1.19332408759185206e+06   -2.04621801849781626e-01    2.71786787361174831e+01    1.20210962075518832e+01   -5.90259142122555232e-06   -5.12332466656319530e-08   -4.69171447842134192e-08
2039-10-12T18:40:08.789287     1.49900237821096957e+08    3.27564818773113750e+06    2.06476415852883924e+06   -6.32515732226684779e-01    2.71721523824301272e+01    1.20164510874974280e+01   -5.90031064309379348e-06   -1.28783035747917377e-07   -8.12103919344681080e-08
2039-10-13T14:48:34.111745     1.49838870807551473e+08    5.24536740020914376e+06    2.93577731196522992e+06   -1.06020034930232665e+00    2.71600051530610571e+01    1.20093205440755355e+01   -5.89681792717610783e-06   -2.06277889785754147e-07   -1.15474359732150329e-07
2039-10-14T10:56:59.434202     1.49746504592440069e+08    7.21400222704502754e+06    3.80618342583293095e+06   -1.48758783672935069e+00    2.71422415997430129e+01    1.19997069514991725e+01   -5.89211484733728604e-06   -2.83702129092987409e-07   -1.49702119003420485e-07
